SL-3 R/B                
1 13154U 82039B   25323.57010145  .00002670  00000+0  16404-3 0  9996
2 13154  81.1766 342.7434 0031627 329.1444  30.7921 15.09338542365026
SL-3 R/B                
1 13403U 82079B   25323.56034438  .00005548  00000+0  23114-3 0  9990
2 13403  81.1454 322.9796 0025758 174.6441 185.5073 15.23234879360921
SL-14 R/B               
1 13553U 82092B   25323.78656389  .00000714  00000+0  77788-4 0  9997
2 13553  82.5686 244.1755 0019164 309.1238  70.0353 14.86520196312601
SL-3 R/B                
1 13819U 83010B   25323.49139095  .00014054  00000+0  32008-3 0  9998
2 13819  81.1020 136.9779 0018201  70.6723 289.6485 15.42635275340936
SL-3 R/B                
1 14208U 83075B   25323.78768606  .00010404  00000+0  30183-3 0  9997
2 14208  97.6095 319.5129 0020906 261.9802  97.9069 15.35505586313277
COSMOS 1536             
1 14699U 84013A   25323.66916010  .00006899  00000+0  29863-3 0  9991
2 14699  82.5475 217.0340 0013795 316.3420  43.6724 15.22166316255879
SL-14 R/B               
1 14820U 84027B   25323.79362156  .00000553  00000+0  60604-4 0  9992
2 14820  82.5417 348.0766 0017429 342.4486  17.6126 14.85839928231312
SL-8 R/B                
1 15483U 85006B   25323.80708130  .00000290  00000+0  10505-3 0  9996
2 15483  74.0445 103.3251 0017750  42.4791 112.4979 14.37700485138238
SL-12 R/B(2)            
1 15772U 85042D   25323.47097868  .00000183  00000+0  10370-3 0  9990
2 15772  71.1078 320.5789 0037469 295.5271 177.2088 14.21941435 98725
SL-14 R/B               
1 15945U 85069B   25323.74439179  .00000691  00000+0  75624-4 0  9994
2 15945  82.5246 128.3217 0018457 192.3355 167.7412 14.86284299156508
SL-16 R/B               
1 16182U 85097B   25323.56768111  .00000312  00000+0  18037-3 0  9994
2 16182  71.0043  12.3877 0005513  53.5545 109.7045 14.16579103 71634
SL-14 R/B               
1 16496U 86006B   25323.81542208  .00000798  00000+0  82765-4 0  9996
2 16496  82.5281   3.1216 0075212 277.0717  82.1951 14.86626612132885
